[{"OBJECT_NAME":"LIME","OBJECT_ID":"2025-009AR","EPOCH":"2026-03-09T17:44:15.459648","MEAN_MOTION":15.28703313,"ECCENTRICITY":0.00016347,"INCLINATION":97.3985,"RA_OF_ASC_NODE":151.4831,"ARG_OF_PERICENTER":35.9029,"MEAN_ANOMALY":324.232,"EPHEMERIS_TYPE":0,"CLASSIFICATION_TYPE":"U","NORAD_CAT_ID":62648,"ELEMENT_SET_NO":999,"REV_AT_EPOCH":6376,"BSTAR":0.00047722827,"MEAN_MOTION_DOT":0.00013254,"MEAN_MOTION_DDOT":0},{"OBJECT_NAME":"STARLINK-36101","OBJECT_ID":"2025-281V","EPOCH":"2026-03-09T04:20:33.672192","MEAN_MOTION":15.27578133,"ECCENTRICITY":6.09e-5,"INCLINATION":42.9984,"RA_OF_ASC_NODE":346.6993,"ARG_OF_PERICENTER":308.8526,"MEAN_ANOMALY":51.2271,"EPHEMERIS_TYPE":0,"CLASSIFICATION_TYPE":"U","NORAD_CAT_ID":66867,"ELEMENT_SET_NO":999,"REV_AT_EPOCH":1609,"BSTAR":0.0012847994,"MEAN_MOTION_DOT":0.0003526,"MEAN_MOTION_DDOT":0}]
